[{"OBJECT_NAME":"ICEYE-X4","OBJECT_ID":"2019-038D","EPOCH":"2026-03-09T23:53:58.416000","MEAN_MOTION":15.26985132,"ECCENTRICITY":0.00122769,"INCLINATION":97.8888,"RA_OF_ASC_NODE":96.1923,"ARG_OF_PERICENTER":293.9914,"MEAN_ANOMALY":66.0038,"EPHEMERIS_TYPE":0,"CLASSIFICATION_TYPE":"U","NORAD_CAT_ID":44390,"ELEMENT_SET_NO":999,"REV_AT_EPOCH":36665,"BSTAR":0.00049915294,"MEAN_MOTION_DOT":0.00013179,"MEAN_MOTION_DDOT":0},{"OBJECT_NAME":"STARLINK-31816","OBJECT_ID":"2024-090N","EPOCH":"2026-03-09T08:25:17.568192","MEAN_MOTION":15.27579477,"ECCENTRICITY":0.00013718,"INCLINATION":42.9989,"RA_OF_ASC_NODE":185.785,"ARG_OF_PERICENTER":286.0581,"MEAN_ANOMALY":74.0119,"EPHEMERIS_TYPE":0,"CLASSIFICATION_TYPE":"U","NORAD_CAT_ID":59742,"ELEMENT_SET_NO":999,"REV_AT_EPOCH":10336,"BSTAR":-5.8813237e-5,"MEAN_MOTION_DOT":-1.88e-5,"MEAN_MOTION_DDOT":0}]
